[{"OBJECT_NAME":"STARLINK-34405","OBJECT_ID":"2025-142J","EPOCH":"2026-03-09T21:33:02.138688","MEAN_MOTION":14.98336718,"ECCENTRICITY":0.00029096,"INCLINATION":70.0009,"RA_OF_ASC_NODE":313.8675,"ARG_OF_PERICENTER":268.8895,"MEAN_ANOMALY":91.1931,"EPHEMERIS_TYPE":0,"CLASSIFICATION_TYPE":"U","NORAD_CAT_ID":64704,"ELEMENT_SET_NO":999,"REV_AT_EPOCH":3952,"BSTAR":0.0002554378,"MEAN_MOTION_DOT":2.957e-5,"MEAN_MOTION_DDOT":0},{"OBJECT_NAME":"COSMOS 2251 DEB","OBJECT_ID":"1993-036BVX","EPOCH":"2026-03-07T01:08:49.279776","MEAN_MOTION":15.01172156,"ECCENTRICITY":0.00079061,"INCLINATION":73.9738,"RA_OF_ASC_NODE":312.9961,"ARG_OF_PERICENTER":93.9407,"MEAN_ANOMALY":333.6878,"EPHEMERIS_TYPE":0,"CLASSIFICATION_TYPE":"U","NORAD_CAT_ID":40794,"ELEMENT_SET_NO":999,"REV_AT_EPOCH":63186,"BSTAR":0.0025789321,"MEAN_MOTION_DOT":0.00033218,"MEAN_MOTION_DDOT":0}]
